FENGYUN 3D              
1 43010U 17072A   26182.59467751 -.00000243  00000+0 -93169-4 0  9990
2 43010  99.0130 157.2776 0002209  38.5552 321.5781 14.19741243447039
NOAA 20 (JPSS-1)        
1 43013U 17073A   26182.59200249  .00000068  00000+0  53440-4 0  9992
2 43013  98.7773 121.9267 0000836 133.0369 227.0877 14.19514335446513
GOES 17                 
1 43226U 18022A   26182.56925404 -.00000173  00000+0  00000+0 0  9994
2 43226   0.9717  85.4856 0000745  36.8203 272.7503  1.00272068 30563
SENTINEL-3B             
1 43437U 18039A   26182.42607465  .00000137  00000+0  74495-4 0  9998
2 43437  98.6244 249.7537 0000816 116.8583 243.2681 14.26738871426151
FENGYUN 2H              
1 43491U 18050A   26182.52896306 -.00000120  00000+0  00000+0 0  9995
2 43491   3.0669  78.9122 0001769 121.5363 348.8645  1.00269605 29581
METOP-C                 
1 43689U 18087A   26182.56783360  .00000107  00000+0  68678-4 0  9997
2 43689  98.6638 241.9082 0002140 111.1110 249.0296 14.21515931396878
GEO-KOMPSAT-2A          
1 43823U 18100A   26182.46742068 -.00000334  00000+0  00000+0 0  9995
2 43823   0.0517 181.9048 0002589 289.1691 104.9700  1.00255173 27774
METEOR-M2 2             
1 44387U 19038A   26182.57486981  .00000196  00000+0  10484-3 0  9999
2 44387  98.9145 170.0727 0001469  26.1189 334.0063 14.24370233363342
ARKTIKA-M 1             
1 47719U 21016A   26180.95192977 -.00000281  00000+0  00000+0 0  9994
2 47719  63.2520  55.7907 7292817 269.9910  14.5481  2.00617895 39040
FENGYUN 3E              
1 49008U 21062A   26182.57694546 -.00000067  00000+0 -10676-4 0  9995
2 49008  98.7488 185.8244 0002702  62.3164 297.8286 14.19904826258621
GOES 18                 
1 51850U 22021A   26182.57159799  .00000107  00000+0  00000+0 0  9993
2 51850   0.0072 256.6923 0000573 234.7791 216.9233  1.00271770  6738
NOAA 21 (JPSS-2)        
1 54234U 22150A   26182.62451974  .00000052  00000+0  45119-4 0  9995
2 54234  98.7060 121.1712 0002409 128.7762 231.3629 14.19539033188598
METEOSAT-12 (MTG-I1)    
1 54743U 22170C   26182.15671559  .00000004  00000+0  00000+0 0  9995
2 54743   0.7533  25.1015 0003663  73.6731 236.5905  1.00276135 13113
TIANMU-1 03             
1 55973U 23039A   26182.59948175  .00018625  00000+0  36161-3 0  9994
2 55973  97.5231 357.1366 0003709  63.2554 296.9075 15.47692679183065
TIANMU-1 04             
1 55974U 23039B   26182.64796123  .00019662  00000+0  37351-3 0  9999
2 55974  97.5172 356.3418 0004119  56.7680 303.3965 15.48308990183086
TIANMU-1 05             
1 55975U 23039C   26182.64560552  .00018312  00000+0  35646-3 0  9991
2 55975  97.5217 356.7940 0003771  79.9225 280.2450 15.47619948183052
TIANMU-1 06             
1 55976U 23039D   26182.65225475  .00018389  00000+0  35074-3 0  9994
2 55976  97.5223 357.4514 0003992  75.1285 285.0407 15.48207080183083
FENGYUN 3G              
1 56232U 23055A   26182.51985154  .00028728  00000+0  45253-3 0  9998
2 56232  49.9928 272.1398 0007301 356.2223   3.8688 15.53260173182239
METEOR-M2 3             
1 57166U 23091A   26182.64276144  .00000014  00000+0  24800-4 0  9995
2 57166  98.6075 237.3249 0004980 120.6691 239.4979 14.24048017156576
TIANMU-1 07             
1 57399U 23101A   26182.62042461  .00007433  00000+0  25864-3 0  9998
2 57399  97.2581 232.9579 0004328  92.3547 267.8189 15.29974372163854
TIANMU-1 08             
1 57400U 23101B   26182.58702616  .00007436  00000+0  25865-3 0  9995
2 57400  97.2570 232.6938 0005517  80.8543 279.3321 15.29979361163848
TIANMU-1 09             
1 57401U 23101C   26182.57013001  .00007955  00000+0  27622-3 0  9997
2 57401  97.2528 232.0857 0004907  95.1542 265.0259 15.30015526163844
TIANMU-1 10             
1 57402U 23101D   26182.60343998  .00007940  00000+0  27589-3 0  9999
2 57402  97.2608 233.1835 0006371  89.5815 270.6156 15.29988517163844
FENGYUN 3F              
1 57490U 23111A   26182.63098687  .00000046  00000+0  42237-4 0  9990
2 57490  98.6831 252.3704 0001497  83.1517 276.9830 14.19941460150911
ARKTIKA-M 2             
1 58584U 23198A   26180.72239164  .00000148  00000+0  00000+0 0  9995
2 58584  63.2199 152.9641 6905877 267.3845  18.7575  2.00610643 18573
TIANMU-1 11             
1 58645U 23205A   26182.60056259  .00006509  00000+0  24715-3 0  9993
2 58645  97.3437 203.9318 0007304 322.8275  37.2457 15.27142281139725
TIANMU-1 12             
1 58646U 23205B   26182.57148287  .00006230  00000+0  23749-3 0  9990
2 58646  97.3426 203.6556 0005364 301.0041  59.0671 15.27040267139708
TIANMU-1 13             
1 58647U 23205C   26182.60481792  .00007008  00000+0  26739-3 0  9992
2 58647  97.3454 203.9637 0004949 275.3207  84.7468 15.26963894139706
TIANMU-1 14             
1 58648U 23205D   26182.58960228  .00006848  00000+0  26097-3 0  9994
2 58648  97.3390 203.1192 0005774 282.2773  77.7819 15.27008470139709
TIANMU-1 19             
1 58660U 23208A   26182.59426003  .00009465  00000+0  31080-3 0  9996
2 58660  97.4522 298.9699 0003579 257.2410 102.8432 15.31789787139530
