OBJECT_NAME,OBJECT_ID,EPOCH,MEAN_MOTION,ECCENTRICITY,INCLINATION,RA_OF_ASC_NODE,ARG_OF_PERICENTER,MEAN_ANOMALY,EPHEMERIS_TYPE,CLASSIFICATION_TYPE,NORAD_CAT_ID,ELEMENT_SET_NO,REV_AT_EPOCH,BSTAR,MEAN_MOTION_DOT,MEAN_MOTION_DDOT
FENGYUN 3D,2017-072A,2026-07-01T14:16:20.136864,14.19741243,.00022093,99.0130,157.2776,38.5552,321.5781,0,U,43010,999,44703,-.93169361E-4,-.243E-5,0
NOAA 20 (JPSS-1),2017-073A,2026-07-01T14:12:29.015136,14.19514335,.00008368,98.7773,121.9267,133.0369,227.0877,0,U,43013,999,44651,.53440248E-4,.68E-6,0
GOES 17,2018-022A,2026-07-01T13:39:43.549056,1.00272068,.00007459,0.9717,85.4856,36.8203,272.7503,0,U,43226,999,3056,0,-.173E-5,0
SENTINEL-3B,2018-039A,2026-07-01T10:13:32.849760,14.26738871,.00008165,98.6244,249.7537,116.8583,243.2681,0,U,43437,999,42615,.74495054E-4,.137E-5,0
FENGYUN 2H,2018-050A,2026-07-01T12:41:42.408384,1.00269605,.00017695,3.0669,78.9122,121.5363,348.8645,0,U,43491,999,2958,0,-.12E-5,0
METOP-C,2018-087A,2026-07-01T13:37:40.823040,14.21515931,.00021401,98.6638,241.9082,111.1110,249.0296,0,U,43689,999,39687,.68677781E-4,.107E-5,0
GEO-KOMPSAT-2A,2018-100A,2026-07-01T11:13:05.146752,1.00255173,.00025893,0.0517,181.9048,289.1691,104.9700,0,U,43823,999,2777,0,-.334E-5,0
METEOR-M2 2,2019-038A,2026-07-01T13:47:48.751584,14.24370233,.00014691,98.9145,170.0727,26.1189,334.0063,0,U,44387,999,36334,.10484296E-3,.196E-5,0
ARKTIKA-M 1,2021-016A,2026-06-29T22:50:46.732128,2.00617895,.72928178,63.2520,55.7907,269.9910,14.5481,0,U,47719,999,3904,0,-.281E-5,0
FENGYUN 3E,2021-062A,2026-07-01T13:50:48.087744,14.19904826,.00027021,98.7488,185.8244,62.3164,297.8286,0,U,49008,999,25862,-.10676105E-4,-.67E-6,0
GOES 18,2022-021A,2026-07-01T13:43:06.066336,1.00271770,.00005735,0.0072,256.6923,234.7791,216.9233,0,U,51850,999,673,0,.107E-5,0
NOAA 21 (JPSS-2),2022-150A,2026-07-01T14:59:18.505536,14.19539033,.0002409,98.7060,121.1712,128.7762,231.3629,0,U,54234,999,18859,.4511909E-4,.52E-6,0
METEOSAT-12 (MTG-I1),2022-170C,2026-07-01T03:45:40.226976,1.00276135,.00036636,0.7533,25.1015,73.6731,236.5905,0,U,54743,999,1311,0,.4E-7,0
TIANMU-1 03,2023-039A,2026-07-01T14:23:15.223200,15.47692679,.00037094,97.5231,357.1366,63.2554,296.9075,0,U,55973,999,18306,.36161129E-3,.18625E-3,0
TIANMU-1 04,2023-039B,2026-07-01T15:33:03.850272,15.48308990,.0004119,97.5172,356.3418,56.7680,303.3965,0,U,55974,999,18308,.37351421E-3,.19662E-3,0
TIANMU-1 05,2023-039C,2026-07-01T15:29:40.316928,15.47619948,.00037711,97.5217,356.7940,79.9225,280.2450,0,U,55975,999,18305,.3564621E-3,.18312E-3,0
TIANMU-1 06,2023-039D,2026-07-01T15:39:14.810400,15.48207080,.00039923,97.5223,357.4514,75.1285,285.0407,0,U,55976,999,18308,.35074362E-3,.18389E-3,0
FENGYUN 3G,2023-055A,2026-07-01T12:28:35.173056,15.53260173,.00073017,49.9928,272.1398,356.2223,3.8688,0,U,56232,999,18223,.45252734E-3,.28728E-3,0
METEOR-M2 3,2023-091A,2026-07-01T15:25:34.588416,14.24048017,.00049803,98.6075,237.3249,120.6691,239.4979,0,U,57166,999,15657,.24799546E-4,.14E-6,0
TIANMU-1 07,2023-101A,2026-07-01T14:53:24.686304,15.29974372,.00043282,97.2581,232.9579,92.3547,267.8189,0,U,57399,999,16385,.25864069E-3,.7433E-4,0
TIANMU-1 08,2023-101B,2026-07-01T14:05:19.060224,15.29979361,.00055173,97.2570,232.6938,80.8543,279.3321,0,U,57400,999,16384,.25864509E-3,.7436E-4,0
TIANMU-1 09,2023-101C,2026-07-01T13:40:59.232864,15.30015526,.00049075,97.2528,232.0857,95.1542,265.0259,0,U,57401,999,16384,.2762183E-3,.7955E-4,0
TIANMU-1 10,2023-101D,2026-07-01T14:28:57.214272,15.29988517,.00063715,97.2608,233.1835,89.5815,270.6156,0,U,57402,999,16384,.27589177E-3,.794E-4,0
FENGYUN 3F,2023-111A,2026-07-01T15:08:37.265568,14.19941460,.00014975,98.6831,252.3704,83.1517,276.9830,0,U,57490,999,15091,.42237482E-4,.46E-6,0
ARKTIKA-M 2,2023-198A,2026-06-29T17:20:14.637696,2.00610643,.69058771,63.2199,152.9641,267.3845,18.7575,0,U,58584,999,1857,0,.148E-5,0
TIANMU-1 11,2023-205A,2026-07-01T14:24:48.607776,15.27142281,.00073044,97.3437,203.9318,322.8275,37.2457,0,U,58645,999,13972,.24715103E-3,.6509E-4,0
TIANMU-1 12,2023-205B,2026-07-01T13:42:56.119968,15.27040267,.00053641,97.3426,203.6556,301.0041,59.0671,0,U,58646,999,13970,.23748769E-3,.623E-4,0
TIANMU-1 13,2023-205C,2026-07-01T14:30:56.268288,15.26963894,.0004949,97.3454,203.9637,275.3207,84.7468,0,U,58647,999,13970,.2673896E-3,.7008E-4,0
TIANMU-1 14,2023-205D,2026-07-01T14:09:01.636992,15.27008470,.00057742,97.3390,203.1192,282.2773,77.7819,0,U,58648,999,13970,.2609681E-3,.6848E-4,0
TIANMU-1 19,2023-208A,2026-07-01T14:15:44.066592,15.31789787,.00035792,97.4522,298.9699,257.2410,102.8432,0,U,58660,999,13953,.31080002E-3,.9465E-4,0
